CCSDS_OMM_VERS = 2.0
CREATION_DATE  = 
ORIGINATOR     = 

OBJECT_NAME    = STARLINK-35871
OBJECT_ID      = 2025-268K
CENTER_NAME    = EARTH
REF_FRAME      = TEME
TIME_SYSTEM    = UTC
MEAN_ELEMENT_THEORY = SGP/SGP4

EPOCH          = 2025-12-13T17:59:30.214464
MEAN_MOTION    = 15.50606074
ECCENTRICITY   = .00011009
INCLINATION    = 42.9994
RA_OF_ASC_NODE = 115.2490
ARG_OF_PERICENTER = 280.1645
MEAN_ANOMALY   = 79.9091

EPHEMERIS_TYPE = 0
CLASSIFICATION_TYPE = U
NORAD_CAT_ID   = 66566
ELEMENT_SET_NO = 999
REV_AT_EPOCH   = 478
BSTAR          = .21057243E-2
MEAN_MOTION_DOT = .125308E-2
MEAN_MOTION_DDOT = 0

CCSDS_OMM_VERS = 2.0
CREATION_DATE  = 
ORIGINATOR     = 

OBJECT_NAME    = STARLINK-35825
OBJECT_ID      = 2025-268L
CENTER_NAME    = EARTH
REF_FRAME      = TEME
TIME_SYSTEM    = UTC
MEAN_ELEMENT_THEORY = SGP/SGP4

EPOCH          = 2025-12-13T16:26:14.708544
MEAN_MOTION    = 15.50597371
ECCENTRICITY   = .0002181
INCLINATION    = 43.0000
RA_OF_ASC_NODE = 115.6240
ARG_OF_PERICENTER = 286.4938
MEAN_ANOMALY   = 73.5683

EPHEMERIS_TYPE = 0
CLASSIFICATION_TYPE = U
NORAD_CAT_ID   = 66567
ELEMENT_SET_NO = 999
REV_AT_EPOCH   = 477
BSTAR          = .1467879E-2
MEAN_MOTION_DOT = .86792E-3
MEAN_MOTION_DDOT = 0

CCSDS_OMM_VERS = 2.0
CREATION_DATE  = 
ORIGINATOR     = 

OBJECT_NAME    = STARLINK-35803
OBJECT_ID      = 2025-268M
CENTER_NAME    = EARTH
REF_FRAME      = TEME
TIME_SYSTEM    = UTC
MEAN_ELEMENT_THEORY = SGP/SGP4

EPOCH          = 2025-12-13T16:25:45.123456
MEAN_MOTION    = 15.50584485
ECCENTRICITY   = .00022584
INCLINATION    = 42.9998
RA_OF_ASC_NODE = 115.6195
ARG_OF_PERICENTER = 285.1954
MEAN_ANOMALY   = 74.8657

EPHEMERIS_TYPE = 0
CLASSIFICATION_TYPE = U
NORAD_CAT_ID   = 66568
ELEMENT_SET_NO = 999
REV_AT_EPOCH   = 477
BSTAR          = .12493893E-2
MEAN_MOTION_DOT = .73664E-3
MEAN_MOTION_DDOT = 0

CCSDS_OMM_VERS = 2.0
CREATION_DATE  = 
ORIGINATOR     = 

OBJECT_NAME    = STARLINK-35835
OBJECT_ID      = 2025-268N
CENTER_NAME    = EARTH
REF_FRAME      = TEME
TIME_SYSTEM    = UTC
MEAN_ELEMENT_THEORY = SGP/SGP4

EPOCH          = 2025-12-13T17:58:01.207776
MEAN_MOTION    = 15.50616342
ECCENTRICITY   = .00019184
INCLINATION    = 42.9998
RA_OF_ASC_NODE = 115.2408
ARG_OF_PERICENTER = 286.3578
MEAN_ANOMALY   = 73.7072

EPHEMERIS_TYPE = 0
CLASSIFICATION_TYPE = U
NORAD_CAT_ID   = 66569
ELEMENT_SET_NO = 999
REV_AT_EPOCH   = 478
BSTAR          = .23641011E-2
MEAN_MOTION_DOT = .141065E-2
MEAN_MOTION_DDOT = 0

CCSDS_OMM_VERS = 2.0
CREATION_DATE  = 
ORIGINATOR     = 

OBJECT_NAME    = STARLINK-35834
OBJECT_ID      = 2025-268P
CENTER_NAME    = EARTH
REF_FRAME      = TEME
TIME_SYSTEM    = UTC
MEAN_ELEMENT_THEORY = SGP/SGP4

EPOCH          = 2025-12-13T17:57:31.637376
MEAN_MOTION    = 15.50614796
ECCENTRICITY   = .00018898
INCLINATION    = 43.0000
RA_OF_ASC_NODE = 115.2376
ARG_OF_PERICENTER = 284.6417
MEAN_ANOMALY   = 75.4234

EPHEMERIS_TYPE = 0
CLASSIFICATION_TYPE = U
NORAD_CAT_ID   = 66570
ELEMENT_SET_NO = 999
REV_AT_EPOCH   = 478
BSTAR          = .2405202E-2
MEAN_MOTION_DOT = .143561E-2
MEAN_MOTION_DDOT = 0

CCSDS_OMM_VERS = 2.0
CREATION_DATE  = 
ORIGINATOR     = 

OBJECT_NAME    = STARLINK-35836
OBJECT_ID      = 2025-268Q
CENTER_NAME    = EARTH
REF_FRAME      = TEME
TIME_SYSTEM    = UTC
MEAN_ELEMENT_THEORY = SGP/SGP4

EPOCH          = 2025-12-13T17:57:01.488960
MEAN_MOTION    = 15.50605807
ECCENTRICITY   = .00029172
INCLINATION    = 42.9993
RA_OF_ASC_NODE = 115.2344
ARG_OF_PERICENTER = 256.7028
MEAN_ANOMALY   = 103.3507

EPHEMERIS_TYPE = 0
CLASSIFICATION_TYPE = U
NORAD_CAT_ID   = 66571
ELEMENT_SET_NO = 999
REV_AT_EPOCH   = 478
BSTAR          = .215814E-2
MEAN_MOTION_DOT = .128497E-2
MEAN_MOTION_DDOT = 0

CCSDS_OMM_VERS = 2.0
CREATION_DATE  = 
ORIGINATOR     = 

OBJECT_NAME    = STARLINK-35870
OBJECT_ID      = 2025-268R
CENTER_NAME    = EARTH
REF_FRAME      = TEME
TIME_SYSTEM    = UTC
MEAN_ELEMENT_THEORY = SGP/SGP4

EPOCH          = 2025-12-13T17:56:32.515584
MEAN_MOTION    = 15.50601622
ECCENTRICITY   = .00012562
INCLINATION    = 42.9995
RA_OF_ASC_NODE = 115.2336
ARG_OF_PERICENTER = 283.9730
MEAN_ANOMALY   = 76.0990

EPHEMERIS_TYPE = 0
CLASSIFICATION_TYPE = U
NORAD_CAT_ID   = 66572
ELEMENT_SET_NO = 999
REV_AT_EPOCH   = 478
BSTAR          = .2096182E-2
MEAN_MOTION_DOT = .124709E-2
MEAN_MOTION_DDOT = 0

CCSDS_OMM_VERS = 2.0
CREATION_DATE  = 
ORIGINATOR     = 

OBJECT_NAME    = STARLINK-35650
OBJECT_ID      = 2025-268S
CENTER_NAME    = EARTH
REF_FRAME      = TEME
TIME_SYSTEM    = UTC
MEAN_ELEMENT_THEORY = SGP/SGP4

EPOCH          = 2025-12-13T17:56:02.647104
MEAN_MOTION    = 15.50624134
ECCENTRICITY   = .0001486
INCLINATION    = 42.9999
RA_OF_ASC_NODE = 115.2295
ARG_OF_PERICENTER = 306.7701
MEAN_ANOMALY   = 53.3023

EPHEMERIS_TYPE = 0
CLASSIFICATION_TYPE = U
NORAD_CAT_ID   = 66573
ELEMENT_SET_NO = 999
REV_AT_EPOCH   = 478
BSTAR          = .23857445E-2
MEAN_MOTION_DOT = .142422E-2
MEAN_MOTION_DDOT = 0

CCSDS_OMM_VERS = 2.0
CREATION_DATE  = 
ORIGINATOR     = 

OBJECT_NAME    = STARLINK-35812
OBJECT_ID      = 2025-268T
CENTER_NAME    = EARTH
REF_FRAME      = TEME
TIME_SYSTEM    = UTC
MEAN_ELEMENT_THEORY = SGP/SGP4

EPOCH          = 2025-12-13T17:55:33.072384
MEAN_MOTION    = 15.50614671
ECCENTRICITY   = .00016881
INCLINATION    = 42.9998
RA_OF_ASC_NODE = 115.2267
ARG_OF_PERICENTER = 299.4841
MEAN_ANOMALY   = 60.5850

EPHEMERIS_TYPE = 0
CLASSIFICATION_TYPE = U
NORAD_CAT_ID   = 66574
ELEMENT_SET_NO = 999
REV_AT_EPOCH   = 478
BSTAR          = .22841888E-2
MEAN_MOTION_DOT = .13619E-2
MEAN_MOTION_DDOT = 0

CCSDS_OMM_VERS = 2.0
CREATION_DATE  = 
ORIGINATOR     = 

OBJECT_NAME    = STARLINK-35810
OBJECT_ID      = 2025-268U
CENTER_NAME    = EARTH
REF_FRAME      = TEME
TIME_SYSTEM    = UTC
MEAN_ELEMENT_THEORY = SGP/SGP4

EPOCH          = 2025-12-13T17:55:03.464832
MEAN_MOTION    = 15.50606032
ECCENTRICITY   = .0001105
INCLINATION    = 42.9995
RA_OF_ASC_NODE = 115.2229
ARG_OF_PERICENTER = 286.4872
MEAN_ANOMALY   = 73.5867

EPHEMERIS_TYPE = 0
CLASSIFICATION_TYPE = U
NORAD_CAT_ID   = 66575
ELEMENT_SET_NO = 999
REV_AT_EPOCH   = 478
BSTAR          = .21348191E-2
MEAN_MOTION_DOT = .127073E-2
MEAN_MOTION_DDOT = 0

CCSDS_OMM_VERS = 2.0
CREATION_DATE  = 
ORIGINATOR     = 

OBJECT_NAME    = STARLINK-35814
OBJECT_ID      = 2025-268V
CENTER_NAME    = EARTH
REF_FRAME      = TEME
TIME_SYSTEM    = UTC
MEAN_ELEMENT_THEORY = SGP/SGP4

EPOCH          = 2025-12-13T17:54:33.819264
MEAN_MOTION    = 15.50605603
ECCENTRICITY   = .00013372
INCLINATION    = 42.9993
RA_OF_ASC_NODE = 115.2201
ARG_OF_PERICENTER = 269.2713
MEAN_ANOMALY   = 90.7994

EPHEMERIS_TYPE = 0
CLASSIFICATION_TYPE = U
NORAD_CAT_ID   = 66576
ELEMENT_SET_NO = 999
REV_AT_EPOCH   = 478
BSTAR          = .21986442E-2
MEAN_MOTION_DOT = .130946E-2
MEAN_MOTION_DDOT = 0

CCSDS_OMM_VERS = 2.0
CREATION_DATE  = 
ORIGINATOR     = 

OBJECT_NAME    = STARLINK-35815
OBJECT_ID      = 2025-268W
CENTER_NAME    = EARTH
REF_FRAME      = TEME
TIME_SYSTEM    = UTC
MEAN_ELEMENT_THEORY = SGP/SGP4

EPOCH          = 2025-12-13T17:54:04.125312
MEAN_MOTION    = 15.50612342
ECCENTRICITY   = .00014621
INCLINATION    = 42.9992
RA_OF_ASC_NODE = 115.2176
ARG_OF_PERICENTER = 300.4475
MEAN_ANOMALY   = 59.6241

EPHEMERIS_TYPE = 0
CLASSIFICATION_TYPE = U
NORAD_CAT_ID   = 66577
ELEMENT_SET_NO = 999
REV_AT_EPOCH   = 478
BSTAR          = .21834722E-2
MEAN_MOTION_DOT = .130056E-2
MEAN_MOTION_DDOT = 0

