STARLINK-35871          
1 66566U 25268K   25347.74965526  .00125308  00000+0  21057-2 0  9992
2 66566  42.9994 115.2490 0001100 280.1645  79.9091 15.50606074  4786
STARLINK-35825          
1 66567U 25268L   25347.68489246  .00086792  00000+0  14679-2 0  9991
2 66567  43.0000 115.6240 0002181 286.4938  73.5683 15.50597371  4773
STARLINK-35803          
1 66568U 25268M   25347.68455004  .00073664  00000+0  12494-2 0  9994
2 66568  42.9998 115.6195 0002258 285.1954  74.8657 15.50584485  4773
STARLINK-35835          
1 66569U 25268N   25347.74862509  .00141065  00000+0  23641-2 0  9991
2 66569  42.9998 115.2408 0001918 286.3578  73.7072 15.50616342  4782
STARLINK-35834          
1 66570U 25268P   25347.74828284  .00143561  00000+0  24052-2 0  9995
2 66570  43.0000 115.2376 0001889 284.6417  75.4234 15.50614796  4784
STARLINK-35836          
1 66571U 25268Q   25347.74793390  .00128497  00000+0  21581-2 0  9990
2 66571  42.9993 115.2344 0002917 256.7028 103.3507 15.50605807  4787
STARLINK-35870          
1 66572U 25268R   25347.74759856  .00124709  00000+0  20962-2 0  9994
2 66572  42.9995 115.2336 0001256 283.9730  76.0990 15.50601622  4781
STARLINK-35650          
1 66573U 25268S   25347.74725286  .00142422  00000+0  23857-2 0  9993
2 66573  42.9999 115.2295 0001486 306.7701  53.3023 15.50624134  4785
STARLINK-35812          
1 66574U 25268T   25347.74691056  .00136190  00000+0  22842-2 0  9999
2 66574  42.9998 115.2267 0001688 299.4841  60.5850 15.50614671  4784
STARLINK-35810          
1 66575U 25268U   25347.74656788  .00127073  00000+0  21348-2 0  9993
2 66575  42.9995 115.2229 0001105 286.4872  73.5867 15.50606032  4788
STARLINK-35814          
1 66576U 25268V   25347.74622476  .00130946  00000+0  21986-2 0  9992
2 66576  42.9993 115.2201 0001337 269.2713  90.7994 15.50605603  4782
STARLINK-35815          
1 66577U 25268W   25347.74588108  .00130056  00000+0  21835-2 0  9991
2 66577  42.9992 115.2176 0001462 300.4475  59.6241 15.50612342  4782
